HST                     
1 20580U 90037B   26068.15977042  .00009063  00000+0  30023-3 0  9999
2 20580  28.4717  43.6133 0001837 120.9992 239.0785 15.29473555773239
STARLINK-2195           
1 47772U 21017BC  26068.64639940  .00001979  00000+0  78929-4 0  9995
2 47772  53.1613 217.4753 0001569  60.3048 299.8109 15.30196200277651
